[
    {
        "Altitude(m)": 604983.0528323962,
        "Argument of Periapsis(deg)": 0.0,
        "Eccentricity": 0.0,
        "Inclination(deg)": 60.0,
        "Latitude(deg)": -0.09253362857797967,
        "Longitude(deg)": 90.08391640064558,
        "Mean Anomaly(deg)": 180.0,
        "RAAN(deg)": 10.0,
        "Satellite Name": "Test1 55",
        "Satellite Number": 55,
        "Semi-Major Axis(m)": 6980739.136638005,
        "Time(s)": 0
    },
    {
        "Altitude(m)": 605055.3314942126,
        "Argument of Periapsis(deg)": 0.00010418945913296404,
        "Eccentricity": 0.0,
        "Inclination(deg)": 60.0,
        "Latitude(deg)": -0.6329435050412014,
        "Longitude(deg)": 90.35204130439213,
        "Mean Anomaly(deg)": 180.62010614546185,
        "RAAN(deg)": 9.999579950860259,
        "Satellite Name": "Test1 55",
        "Satellite Number": 55,
        "Semi-Major Axis(m)": 6980739.136638005,
        "Time(s)": 10
    }
]